$$SOE
2460721.500000000, A.D. 2025-Feb-15 00:00:00.0000, -2.449753615684400E+08, -4.250866157253329E+08, -8.521680544183436E+07,
2460728.500000000, A.D. 2025-Feb-22 00:00:00.0000, -2.363774324493401E+08, -4.296566673686032E+08, -8.560533320628893E+07,
2460735.500000000, A.D. 2025-Mar-01 00:00:00.0000, -2.276864811733204E+08, -4.340577050053707E+08, -8.596017206272325E+07,
2460742.500000000, A.D. 2025-Mar-08 00:00:00.0000, -2.189058319167708E+08, -4.382878193865263E+08, -8.628114762760454E+07,
2460749.500000000, A.D. 2025-Mar-15 00:00:00.0000, -2.100388475187924E+08, -4.423451578822607E+08, -8.656809749796361E+07,
2460756.500000000, A.D. 2025-Mar-22 00:00:00.0000, -2.010889308451160E+08, -4.462279248912479E+08, -8.682087111058074E+07,
2460763.500000000, A.D. 2025-Mar-29 00:00:00.0000, -1.920595247642003E+08, -4.499343845008787E+08, -8.703932990852174E+07,
2460770.500000000, A.D. 2025-Apr-05 00:00:00.0000, -1.829541104103708E+08, -4.534628622609049E+08, -8.722334758898091E+07,
2460777.500000000, A.D. 2025-Apr-12 00:00:00.0000, -1.737762056602055E+08, -4.568117459663144E+08, -8.737281024765560E+07,
2460784.500000000, A.D. 2025-Apr-19 00:00:00.0000, -1.645293640094429E+08, -4.599794863299428E+08, -8.748761647470143E+07,
2460791.500000000, A.D. 2025-Apr-26 00:00:00.0000, -1.552171735787099E+08, -4.629645977466404E+08, -8.756767744383222E+07,
2460798.500000000, A.D. 2025-May-03 00:00:00.0000, -1.458432561341703E+08, -4.657656591283147E+08, -8.761291700332811E+07,
2460805.500000000, A.D. 2025-May-10 00:00:00.0000, -1.364112660940407E+08, -4.683813147995673E+08, -8.762327177064744E+07,
2460812.500000000, A.D. 2025-May-17 00:00:00.0000, -1.269248894835045E+08, -4.708102754934294E+08, -8.759869123707476E+07,
2460819.500000000, A.D. 2025-May-24 00:00:00.0000, -1.173878426631149E+08, -4.730513195004808E+08, -8.753913790257326E+07,
2460826.500000000, A.D. 2025-May-31 00:00:00.0000, -1.078038704119540E+08, -4.751032936598038E+08, -8.744458745370811E+07,
2460833.500000000, A.D. 2025-Jun-07 00:00:00.0000, -9.817674376596376E+07, -4.769651129867393E+08, -8.731502884949708E+07,
2460840.500000000, A.D. 2025-Jun-14 00:00:00.0000, -8.851025997575010E+07, -4.786357596035986E+08, -8.715046415277678E+07,
2460847.500000000, A.D. 2025-Jun-21 00:00:00.0000, -7.880824336655380E+07, -4.801142842438298E+08, -8.695090848594165E+07,
2460854.500000000, A.D. 2025-Jun-28 00:00:00.0000, -6.907454397179216E+07, -4.813998085649182E+08, -8.671639025383189E+07,
2460861.500000000, A.D. 2025-Jul-05 00:00:00.0000, -5.931303545695222E+07, -4.824915261134741E+08, -8.644695131840903E+07,
2460868.500000000, A.D. 2025-Jul-12 00:00:00.0000, -4.952761352484649E+07, -4.833887027471049E+08, -8.614264708158603E+07,
2460875.500000000, A.D. 2025-Jul-19 00:00:00.0000, -3.972219461251630E+07, -4.840906770871286E+08, -8.580354654033899E+07,
2460882.500000000, A.D. 2025-Jul-26 00:00:00.0000, -2.990071466966025E+07, -4.845968610575758E+08, -8.542973233770913E+07,
2460889.500000000, A.D. 2025-Aug-02 00:00:00.0000, -2.006712795289901E+07, -4.849067404876437E+08, -8.502130081364813E+07,
2460896.500000000, A.D. 2025-Aug-09 00:00:00.0000, -1.022540581204607E+07, -4.850198757911633E+08, -8.457836205881080E+07,
2460903.500000000, A.D. 2025-Aug-16 00:00:00.0000, -3.795353911261741E+05, -4.849359027854984E+08, -8.410103998331851E+07,
2460910.500000000, A.D. 2025-Aug-23 00:00:00.0000, 9.466482048531717E+06, -4.846545336327242E+08, -8.358947242574069E+07,
2460917.500000000, A.D. 2025-Aug-30 00:00:00.0000, 1.930863351185641E+07, -4.841755571882907E+08, -8.304381127375954E+07,
2460924.500000000, A.D. 2025-Sep-06 00:00:00.0000, 2.914289594174975E+07, -4.834988377556834E+08, -8.246422238417250E+07,
2460931.500000000, A.D. 2025-Sep-13 00:00:00.0000, 3.896523550811566E+07, -4.826243147278740E+08, -8.185088535119727E+07,
2460938.500000000, A.D. 2025-Sep-20 00:00:00.0000, 4.877160778803825E+07, -4.815520047581859E+08, -8.120399355716163E+07,
2460945.500000000, A.D. 2025-Sep-27 00:00:00.0000, 5.855795989616015E+07, -4.802820033484240E+08, -8.052375434816849E+07,
2460952.500000000, A.D. 2025-Oct-04 00:00:00.0000, 6.832023254849558E+07, -4.788144853145158E+08, -7.981038910548013E+07,
2460959.500000000, A.D. 2025-Oct-11 00:00:00.0000, 7.805436168578523E+07, -4.771497050716054E+08, -7.906413325513396E+07,
2460966.500000000, A.D. 2025-Oct-18 00:00:00.0000, 8.775627993980834E+07, -4.752879970116695E+08, -7.828523626397315E+07,
2460973.500000000, A.D. 2025-Oct-25 00:00:00.0000, 9.742191808188656E+07, -4.732297759610665E+08, -7.747396163378090E+07,
2460980.500000000, A.D. 2025-Nov-01 00:00:00.0000, 1.070472064927910E+08, -4.709755377006768E+08, -7.663058689570910E+07,
2460987.500000000, A.D. 2025-Nov-08 00:00:00.0000, 1.166280766886271E+08, -4.685258595781948E+08, -7.575540361069793E+07,
2460994.500000000, A.D. 2025-Nov-15 00:00:00.0000, 1.261604630507474E+08, -4.658814012696925E+08, -7.484871739436096E+07,
2461001.500000000, A.D. 2025-Nov-22 00:00:00.0000, 1.356403051624056E+08, -4.630429054694785E+08, -7.391084798550779E+07,
2461008.500000000, A.D. 2025-Nov-29 00:00:00.0000, 1.450635505985226E+08, -4.600111973725840E+08, -7.294212925168613E+07,
2461015.500000000, A.D. 2025-Dec-06 00:00:00.0000, 1.544261558902318E+08, -4.567871830846217E+08, -7.194290893397099E+07,
2461022.500000000, A.D. 2025-Dec-13 00:00:00.0000, 1.637240860971359E+08, -4.533718503270825E+08, -7.091354844604397E+07,
2461029.500000000, A.D. 2025-Dec-20 00:00:00.0000, 1.729533164804634E+08, -4.497662704131675E+08, -6.985442296433794E+07,
2461036.500000000, A.D. 2025-Dec-27 00:00:00.0000, 1.821098352031294E+08, -4.459715989022276E+08, -6.876592149907872E+07,
2461043.500000000, A.D. 2026-Jan-03 00:00:00.0000, 1.911896455964442E+08, -4.419890755474386E+08, -6.764844686255783E+07,
2461050.500000000, A.D. 2026-Jan-10 00:00:00.0000, 2.001887681016982E+08, -4.378200242137345E+08, -6.650241559977347E+07,
2461057.500000000, A.D. 2026-Jan-17 00:00:00.0000, 2.091032421175315E+08, -4.334658528547785E+08, -6.532825790965390E+07,
2461064.500000000, A.D. 2026-Jan-24 00:00:00.0000, 2.179291278296855E+08, -4.289280535228332E+08, -6.412641756151828E+07,
2461071.500000000, A.D. 2026-Jan-31 00:00:00.0000, 2.266625080459678E+08, -4.242082024152663E+08, -6.289735180905533E+07,
2461078.500000000, A.D. 2026-Feb-07 00:00:00.0000, 2.352994900982010E+08, -4.193079600119942E+08, -6.164153131199175E+07,
2461085.500000000, A.D. 2026-Feb-14 00:00:00.0000, 2.438362080649574E+08, -4.142290713175148E+08, -6.035944009007648E+07,
2461092.500000000, A.D. 2026-Feb-21 00:00:00.0000, 2.522688257030095E+08, -4.089733656303841E+08, -5.905157549802744E+07,
2461099.500000000, A.D. 2026-Feb-28 00:00:00.0000, 2.605935390018019E+08, -4.035427546871849E+08, -5.771844802775583E+07,
2461106.500000000, A.D. 2026-Mar-07 00:00:00.0000, 2.688065763001706E+08, -3.979392311304023E+08, -5.636058090813881E+07,
2461113.500000000, A.D. 2026-Mar-14 00:00:00.0000, 2.769041987387761E+08, -3.921648696307777E+08, -5.497850994708648E+07,
2461120.500000000, A.D. 2026-Mar-21 00:00:00.0000, 2.848827028300079E+08, -3.862218277643150E+08, -5.357278354226424E+07,
2461127.500000000, A.D. 2026-Mar-28 00:00:00.0000, 2.927384231350485E+08, -3.801123456144162E+08, -5.214396259186175E+07,
2461134.500000000, A.D. 2026-Apr-04 00:00:00.0000, 3.004677344430965E+08, -3.738387450639314E+08, -5.069262032866037E+07,
2461141.500000000, A.D. 2026-Apr-11 00:00:00.0000, 3.080670537252803E+08, -3.674034291360785E+08, -4.921934213160981E+07,
2461148.500000000, A.D. 2026-Apr-18 00:00:00.0000, 3.155328420212123E+08, -3.608088813899827E+08, -4.772472532975151E+07,
2461155.500000000, A.D. 2026-Apr-25 00:00:00.0000, 3.228616063026271E+08, -3.540576653552591E+08, -4.620937900117235E+07,
2461162.500000000, A.D. 2026-May-02 00:00:00.0000, 3.300499013432283E+08, -3.471524240342325E+08, -4.467392377192013E+07,
2461169.500000000, A.D. 2026-May-09 00:00:00.0000, 3.370943317177915E+08, -3.400958795366185E+08, -4.311899163144779E+07,
2461176.500000000, A.D. 2026-May-16 00:00:00.0000, 3.439915543074848E+08, -3.328908327069045E+08, -4.154522578778002E+07,
2461183.500000000, A.D. 2026-May-23 00:00:00.0000, 3.507382813628519E+08, -3.255401617216045E+08, -3.995328048357923E+07,
2461190.500000000, A.D. 2026-May-30 00:00:00.0000, 3.573312820450072E+08, -3.180468193373843E+08, -3.834382055639778E+07,
2461197.500000000, A.D. 2026-Jun-06 00:00:00.0000, 3.637673821251373E+08, -3.104138320633241E+08, -3.671752098154086E+07,
2461204.500000000, A.D. 2026-Jun-13 00:00:00.0000, 3.700434655056075E+08, -3.026443010566897E+08, -3.507506671757348E+07,
2461211.500000000, A.D. 2026-Jun-20 00:00:00.0000, 3.761564770602127E+08, -2.947414018150356E+08, -3.341715256962287E+07,
2461218.500000000, A.D. 2026-Jun-27 00:00:00.0000, 3.821034250939105E+08, -2.867083830043495E+08, -3.174448294280732E+07,
2461225.500000000, A.D. 2026-Jul-04 00:00:00.0000, 3.878813834202415E+08, -2.785485651980275E+08, -3.005777154944769E+07,
2461232.500000000, A.D. 2026-Jul-11 00:00:00.0000, 3.934874933085476E+08, -2.702653396584139E+08, -2.835774110446861E+07,
2461239.500000000, A.D. 2026-Jul-18 00:00:00.0000, 3.989189653918701E+08, -2.618621671351025E+08, -2.664512301572481E+07,
2461246.500000000, A.D. 2026-Jul-25 00:00:00.0000, 4.041730815580062E+08, -2.533425766773941E+08, -2.492065707157637E+07,
2461253.500000000, A.D. 2026-Aug-01 00:00:00.0000, 4.092471968694456E+08, -2.447101645092007E+08, -2.318509113432886E+07,
2461260.500000000, A.D. 2026-Aug-08 00:00:00.0000, 4.141387417242602E+08, -2.359685930020300E+08, -2.143918086240903E+07,
2461267.500000000, A.D. 2026-Aug-15 00:00:00.0000, 4.188452246706035E+08, -2.271215892949572E+08, -1.968368946271099E+07,
2461274.500000000, A.D. 2026-Aug-22 00:00:00.0000, 4.233642351126403E+08, -2.181729423403811E+08, -1.791938730360961E+07,
2461281.500000000, A.D. 2026-Aug-29 00:00:00.0000, 4.276934436173303E+08, -2.091264997498353E+08, -1.614705129095151E+07,
$$EOE